{
"type": "FeatureCollection",
"name": "anp",
"crs": { "type": "name", "properties": { "name": "urn:ogc:def:crs:OGC:1.3:CRS84" } },
"features": [
{ "type": "Feature", "properties": { "NOMBRE": "Yagul", "CAT_MANEJO": "Monumento Nacional", "ADVC": null, "FECHA_EXP": null, "VIGENCIA": null, "NOM_059": null, "TIPO_PROP": null, "HECTARES": 1077.447 }, "geometry": { "type": "MultiPolygon", "coordinates": [ [ [ [ -96.431827870001015, 16.941679121291994, 0.0 ], [ -96.433163030918266, 16.93315002268027, 0.0 ], [ -96.463627878383875, 16.947379974264958, 0.0 ], [ -96.465924390280819, 16.951459526202658, 0.0 ], [ -96.463811024022291, 16.957087730713958, 0.0 ], [ -96.463704230304742, 16.964958842742057, 0.0 ], [ -96.471562667562893, 16.968946877731842, 0.0 ], [ -96.458928140688016, 16.974367145775791, 0.0 ], [ -96.435413824249352, 16.960759008194252, 0.0 ], [ -96.431118354251154, 16.954367875111338, 0.0 ], [ -96.431827870001015, 16.941679121291994, 0.0 ] ] ] ] } },
{ "type": "Feature", "properties": { "NOMBRE": "El Campanario - Laacanloo Cruz", "CAT_MANEJO": "ADVC", "ADVC": "El Campanario - Laacanloo Cruz", "FECHA_EXP": "25/11/2011", "VIGENCIA": "15 años", "NOM_059": "Flora: Coryphantha retusa, Mammillaria karwinskiana, Bouvardia xylosteoides. Fauna: Leptonycteris curasoae, Accipiter striatus, Buteo albicaudatus, Buteo albonotatus, Parabuteo unicinctus, Oporornis tolmiei, entre otras, ver listado.", "TIPO_PROP": "Comunidades", "HECTARES": 4907.246 }, "geometry": { "type": "MultiPolygon", "coordinates": [ [ [ [ -96.361367627863586, 16.994172231563471, 0.0 ], [ -96.35215152257453, 16.992169264650048, 0.0 ], [ -96.337508430969166, 16.988985607499988, 0.0 ], [ -96.324555095341196, 16.985244843275037, 0.0 ], [ -96.311163639690051, 16.981448404720258, 0.0 ], [ -96.302938310754342, 16.978893388519218, 0.0 ], [ -96.304708230500268, 16.972428240571048, 0.0 ], [ -96.304849667777788, 16.971911628618912, 0.0 ], [ -96.306334947599623, 16.962960265304179, 0.0 ], [ -96.307648327408202, 16.95653246170388, 0.0 ], [ -96.307945195414263, 16.95475090023405, 0.0 ], [ -96.307717995189194, 16.954491504279641, 0.0 ], [ -96.308148600477324, 16.954352868390373, 0.0 ], [ -96.308552768395387, 16.95426129582231, 0.0 ], [ -96.309192641427117, 16.954415139247452, 0.0 ], [ -96.30966336547182, 16.954954464477169, 0.0 ], [ -96.309883733547366, 16.955393580049787, 0.0 ], [ -96.310145476732174, 16.955578741465892, 0.0 ], [ -96.310440671099968, 16.956067342234231, 0.0 ], [ -96.310789152996819, 16.95635064126926, 0.0 ], [ -96.310919679699282, 16.956025159533592, 0.0 ], [ -96.311111079712404, 16.955845972313941, 0.0 ], [ -96.311314199690372, 16.955727451560794, 0.0 ], [ -96.311466275947751, 16.95565675495541, 0.0 ], [ -96.311905632538711, 16.955747346363111, 0.0 ], [ -96.312155821234001, 16.955859743632445, 0.0 ], [ -96.312196859097625, 16.955630075667635, 0.0 ], [ -96.312539644688698, 16.955428588858414, 0.0 ], [ -96.312605853677042, 16.955199254542144, 0.0 ], [ -96.312094599885725, 16.954853212505927, 0.0 ], [ -96.311749403212218, 16.954339750878948, 0.0 ], [ -96.310895367427079, 16.954195283785523, 0.0 ], [ -96.310321702484444, 16.953812110540674, 0.0 ], [ -96.309797523636618, 16.953490097490164, 0.0 ], [ -96.308845731545205, 16.953138330369839, 0.0 ], [ -96.30834466797188, 16.95296202367863, 0.0 ], [ -96.307990039208775, 16.952795412578421, 0.0 ], [ -96.309138195571151, 16.950411765790594, 0.0 ], [ -96.3109275730489, 16.945785963451616, 0.0 ], [ -96.311323163233226, 16.945997270857539, 0.0 ], [ -96.31199645956886, 16.946245198657156, 0.0 ], [ -96.312446598131842, 16.94653895231097, 0.0 ], [ -96.312980650636376, 16.946496944978218, 0.0 ], [ -96.313545222533861, 16.946176542613479, 0.0 ], [ -96.314109799827264, 16.945611930246617, 0.0 ], [ -96.314323428383332, 16.94555856627505, 0.0 ], [ -96.314451218448852, 16.945421257785011, 0.0 ], [ -96.314374923563733, 16.945234299523463, 0.0 ], [ -96.314868922962305, 16.94451712076874, 0.0 ], [ -96.315252300353194, 16.944040342487966, 0.0 ], [ -96.315898890421295, 16.943651198644083, 0.0 ], [ -96.316308978576316, 16.943635908370645, 0.0 ], [ -96.317280462223394, 16.94292455002811, 0.0 ], [ -96.317996290196504, 16.942499187787437, 0.0 ], [ -96.318646651121881, 16.942252325684468, 0.0 ], [ -96.31961079270377, 16.942230036886855, 0.0 ], [ -96.320349512020158, 16.941711764786323, 0.0 ], [ -96.320904805612116, 16.941235153779527, 0.0 ], [ -96.321513270720772, 16.940231175828309, 0.0 ], [ -96.321794341235673, 16.939750872205167, 0.0 ], [ -96.322168670547597, 16.939139844928125, 0.0 ], [ -96.322672643427595, 16.939058399625583, 0.0 ], [ -96.322815355943732, 16.938664335590786, 0.0 ], [ -96.322782101712434, 16.937783973951429, 0.0 ], [ -96.322656832446654, 16.936946389464492, 0.0 ], [ -96.322533424777589, 16.935976790796424, 0.0 ], [ -96.322174037701487, 16.935532159681621, 0.0 ], [ -96.322232808397217, 16.93460893275623, 0.0 ], [ -96.322150747958489, 16.933947935548961, 0.0 ], [ -96.322433049645426, 16.933379681827031, 0.0 ], [ -96.322487459528503, 16.932764365683134, 0.0 ], [ -96.322501153505272, 16.9317966546921, 0.0 ], [ -96.322571860902499, 16.930215737366517, 0.0 ], [ -96.323338868393918, 16.929744329837064, 0.0 ], [ -96.324640930234551, 16.9289229142613, 0.0 ], [ -96.326102489538144, 16.928227850734864, 0.0 ], [ -96.328081135635742, 16.928243624843628, 0.0 ], [ -96.328676221530301, 16.928560281532015, 0.0 ], [ -96.329056796633751, 16.929198087921574, 0.0 ], [ -96.330214916584922, 16.929430614831233, 0.0 ], [ -96.332208616434372, 16.929891345609345, 0.0 ], [ -96.334975583955867, 16.930424374685284, 0.0 ], [ -96.337128842422004, 16.931011414345477, 0.0 ], [ -96.338378080783627, 16.93164879265786, 0.0 ], [ -96.340526559353037, 16.93257730759683, 0.0 ], [ -96.341481158228689, 16.933521332243838, 0.0 ], [ -96.341788890045081, 16.93458120755686, 0.0 ], [ -96.342422236696748, 16.935427843720202, 0.0 ], [ -96.343796196637001, 16.93637731825881, 0.0 ], [ -96.344777852515719, 16.937694412267504, 0.0 ], [ -96.345833615229026, 16.938329146572993, 0.0 ], [ -96.346955215510704, 16.938871705764804, 0.0 ], [ -96.348422513388115, 16.940070825808132, 0.0 ], [ -96.350638710907617, 16.94078274262964, 0.0 ], [ -96.352164905385905, 16.942386312978059, 0.0 ], [ -96.352344983833831, 16.943351319707798, 0.0 ], [ -96.353633818445786, 16.945005092011552, 0.0 ], [ -96.353765488186582, 16.945489894942913, 0.0 ], [ -96.354005814916221, 16.94561574966734, 0.0 ], [ -96.354893926013744, 16.945651284579288, 0.0 ], [ -96.35630983393159, 16.945918090047982, 0.0 ], [ -96.35765819017324, 16.946401307474506, 0.0 ], [ -96.358523979198097, 16.946785159707598, 0.0 ], [ -96.359102038228329, 16.946978961809823, 0.0 ], [ -96.359748077911291, 16.946925272283629, 0.0 ], [ -96.360427693782896, 16.94677872146104, 0.0 ], [ -96.361456511009038, 16.947040483531669, 0.0 ], [ -96.362617837942693, 16.947055495914551, 0.0 ], [ -96.363109511694418, 16.946502882302354, 0.0 ], [ -96.364206316767962, 16.946517052919859, 0.0 ], [ -96.36471684300777, 16.946927357811504, 0.0 ], [ -96.365635665053702, 16.945821287922264, 0.0 ], [ -96.366300741585832, 16.94440133935051, 0.0 ], [ -96.367202756202076, 16.943880110279053, 0.0 ], [ -96.367864605067325, 16.943750371382677, 0.0 ], [ -96.368146895063035, 16.944032637996017, 0.0 ], [ -96.368314012481548, 16.944953220015222, 0.0 ], [ -96.370042619171372, 16.945829353042388, 0.0 ], [ -96.370170590000583, 16.946256661415966, 0.0 ], [ -96.3705425244178, 16.946302457592534, 0.0 ], [ -96.370854750146464, 16.946274147833829, 0.0 ], [ -96.371456848054947, 16.94644365834835, 0.0 ], [ -96.371957351350545, 16.946562909350973, 0.0 ], [ -96.372987793651561, 16.947091703519487, 0.0 ], [ -96.375067480379769, 16.946796214174093, 0.0 ], [ -96.375473386687332, 16.946041148780211, 0.0 ], [ -96.376091920605489, 16.945645385026634, 0.0 ], [ -96.376643767096056, 16.945404108612905, 0.0 ], [ -96.377452402406291, 16.945259245817681, 0.0 ], [ -96.378066616880702, 16.945173929833246, 0.0 ], [ -96.378332007715855, 16.944649436222686, 0.0 ], [ -96.379122576545527, 16.943479507273597, 0.0 ], [ -96.380422830748898, 16.942781971510922, 0.0 ], [ -96.381284957734437, 16.942377755029515, 0.0 ], [ -96.380337074096531, 16.945137693899653, 0.0 ], [ -96.382252027958543, 16.949329135831153, 0.0 ], [ -96.385291409570797, 16.958783767856737, 0.0 ], [ -96.383891305888852, 16.962520658701568, 0.0 ], [ -96.383819147885163, 16.966197717650726, 0.0 ], [ -96.384030935978771, 16.968306990725303, 0.0 ], [ -96.384426072904759, 16.972242298993098, 0.0 ], [ -96.379217147902864, 16.979986250964942, 0.0 ], [ -96.37921704223254, 16.979986371923722, 0.0 ], [ -96.379214323581991, 16.979988932743222, 0.0 ], [ -96.378273669594051, 16.981066375413018, 0.0 ], [ -96.378235021229074, 16.981111726874914, 0.0 ], [ -96.376607126917207, 16.982977178454227, 0.0 ], [ -96.365964686520883, 16.995171117553188, 0.0 ], [ -96.361367627863586, 16.994172231563471, 0.0 ] ] ], [ [ [ -96.374009209457341, 16.904936938589024, 0.0 ], [ -96.373254729521946, 16.904064451413525, 0.0 ], [ -96.371738710872634, 16.904011017294771, 0.0 ], [ -96.371097398026379, 16.903893493889807, 0.0 ], [ -96.369750557142396, 16.904936314459533, 0.0 ], [ -96.368553157502063, 16.904802326266573, 0.0 ], [ -96.367780684830578, 16.905714067950047, 0.0 ], [ -96.366476720024494, 16.905853257821818, 0.0 ], [ -96.365697455672844, 16.9058432204884, 0.0 ], [ -96.364562881771377, 16.905228362998699, 0.0 ], [ -96.363579295048268, 16.904965600881948, 0.0 ], [ -96.362383037546991, 16.905050156939396, 0.0 ], [ -96.361452098935047, 16.904738026538876, 0.0 ], [ -96.360835661336537, 16.904229903287575, 0.0 ], [ -96.360377851556478, 16.903523684570544, 0.0 ], [ -96.359442753580041, 16.903511616568078, 0.0 ], [ -96.358820743782118, 16.903403514460795, 0.0 ], [ -96.358466155488486, 16.902748660522416, 0.0 ], [ -96.357433428909488, 16.902285096879851, 0.0 ], [ -96.356485694559026, 16.902547412033542, 0.0 ], [ -96.356550213721221, 16.901945115374964, 0.0 ], [ -96.356359477407835, 16.901365259499325, 0.0 ], [ -96.354862458735312, 16.900351080538094, 0.0 ], [ -96.354719173351, 16.899448870768953, 0.0 ], [ -96.35483273973901, 16.898749848426935, 0.0 ], [ -96.353685819045182, 16.898829397958597, 0.0 ], [ -96.352794272537523, 16.899624021831332, 0.0 ], [ -96.351435225155356, 16.900206758235516, 0.0 ], [ -96.350910844859499, 16.900550031259147, 0.0 ], [ -96.350002284977336, 16.90118600752842, 0.0 ], [ -96.349718097412108, 16.900827386674745, 0.0 ], [ -96.349081036560435, 16.900388688387409, 0.0 ], [ -96.348600387597685, 16.900320050330176, 0.0 ], [ -96.347812650733104, 16.900384891449754, 0.0 ], [ -96.347635265754789, 16.900369678518043, 0.0 ], [ -96.347267154355549, 16.900224644851658, 0.0 ], [ -96.346786496399559, 16.900217056372252, 0.0 ], [ -96.346135713692078, 16.899636198651859, 0.0 ], [ -96.346147915693592, 16.89317375586435, 0.0 ], [ -96.344544258110901, 16.889697130618266, 0.0 ], [ -96.345027519604201, 16.88569909193971, 0.0 ], [ -96.345258164232789, 16.882065806591861, 0.0 ], [ -96.348684169338796, 16.884034095197485, 0.0 ], [ -96.353741989800852, 16.886294744407078, 0.0 ], [ -96.3590799661674, 16.887808821420094, 0.0 ], [ -96.375318065676012, 16.893009940756368, 0.0 ], [ -96.380128954787295, 16.89536302588316, 0.0 ], [ -96.389775942805414, 16.89905142528325, 0.0 ], [ -96.39004907410532, 16.899155886934803, 0.0 ], [ -96.389938945825492, 16.900051338298805, 0.0 ], [ -96.389376557482009, 16.90075523496628, 0.0 ], [ -96.388729622074266, 16.901086302391128, 0.0 ], [ -96.38820391168106, 16.901529825541132, 0.0 ], [ -96.38752648475932, 16.901671283503109, 0.0 ], [ -96.386221510014551, 16.902104757628727, 0.0 ], [ -96.385123643740982, 16.902590995877908, 0.0 ], [ -96.385116745940977, 16.903091085485357, 0.0 ], [ -96.384690103965028, 16.903886027718162, 0.0 ], [ -96.384422061029184, 16.904482849304248, 0.0 ], [ -96.384051502574565, 16.904978289416732, 0.0 ], [ -96.383116370424048, 16.904966327534176, 0.0 ], [ -96.382290676773181, 16.904555653920443, 0.0 ], [ -96.38120177134455, 16.90439160858606, 0.0 ], [ -96.380684331116782, 16.904234874739814, 0.0 ], [ -96.379848338429923, 16.904250900658766, 0.0 ], [ -96.37911053552267, 16.904037691186709, 0.0 ], [ -96.378402367974715, 16.90423237372524, 0.0 ], [ -96.377304736424279, 16.904391709310126, 0.0 ], [ -96.376826105540246, 16.90518587273003, 0.0 ], [ -96.376350240071318, 16.905780105167874, 0.0 ], [ -96.376033684107043, 16.90612611302987, 0.0 ], [ -96.375444142533041, 16.906435651584275, 0.0 ], [ -96.374915123533981, 16.906428861702789, 0.0 ], [ -96.374262561068178, 16.906176447185466, 0.0 ], [ -96.374009209457341, 16.904936938589024, 0.0 ] ] ] ] } },
{ "type": "Feature", "properties": { "NOMBRE": "El Fuerte", "CAT_MANEJO": "ADVC", "ADVC": "El Fuerte", "FECHA_EXP": "25/11/2011", "VIGENCIA": "15 años", "NOM_059": "Flora: Coryphantha retusa, Mammillaria karwinskiana, Bouvardia xylosteoides. Fauna: Leptonycteris curasoae, Accipiter striatus, Buteo albicaudatus, Buteo albonotatus, Parabuteo unicinctus, Oporornis tolmiei, entre otras, ver listado.", "TIPO_PROP": "Tierras de Uso Común", "HECTARES": 989.09 }, "geometry": { "type": "MultiPolygon", "coordinates": [ [ [ [ -96.381284957734437, 16.942377755029515, 0.0 ], [ -96.381748708436007, 16.942570751339243, 0.0 ], [ -96.38275988186291, 16.942700679992551, 0.0 ], [ -96.38426583440058, 16.942213030706995, 0.0 ], [ -96.385943534966046, 16.941025534401035, 0.0 ], [ -96.387271142948734, 16.938780527099834, 0.0 ], [ -96.388731161713608, 16.938682243790694, 0.0 ], [ -96.38994327336323, 16.938931756195775, 0.0 ], [ -96.391023092041934, 16.939959464557827, 0.0 ], [ -96.391575736231147, 16.94101954131898, 0.0 ], [ -96.391765923958104, 16.941919004558589, 0.0 ], [ -96.392694482064542, 16.942164881903906, 0.0 ], [ -96.393568549348942, 16.94342396604339, 0.0 ], [ -96.394446388389952, 16.94441015540454, 0.0 ], [ -96.395290169205808, 16.944927968850759, 0.0 ], [ -96.397474104446218, 16.945228858625075, 0.0 ], [ -96.398397315183757, 16.945864546211997, 0.0 ], [ -96.398831696725281, 16.946689087831292, 0.0 ], [ -96.399679791588966, 16.94689489228568, 0.0 ], [ -96.400533252707277, 16.94671076688855, 0.0 ], [ -96.401357452584165, 16.945707259282692, 0.0 ], [ -96.401532900422907, 16.944734506692321, 0.0 ], [ -96.401052647161777, 16.944299381411469, 0.0 ], [ -96.400509051051699, 16.94257650340306, 0.0 ], [ -96.400483011181819, 16.941523150872833, 0.0 ], [ -96.399409559703244, 16.940027537840749, 0.0 ], [ -96.399028566415026, 16.938267621253914, 0.0 ], [ -96.399669471868492, 16.935857784409436, 0.0 ], [ -96.401030440202447, 16.934120134137068, 0.0 ], [ -96.402537900003921, 16.93351530228955, 0.0 ], [ -96.402868937751151, 16.93301255428614, 0.0 ], [ -96.402711179577082, 16.932698499336389, 0.0 ], [ -96.402033208565527, 16.931909885632869, 0.0 ], [ -96.400914450141627, 16.930764685342172, 0.0 ], [ -96.400841464761669, 16.930178764438601, 0.0 ], [ -96.40077989627504, 16.929150881608045, 0.0 ], [ -96.404552917383015, 16.930401988760959, 0.0 ], [ -96.410885694119287, 16.932000076842254, 0.0 ], [ -96.413233811391152, 16.931348280598804, 0.0 ], [ -96.418595853615628, 16.937800706737381, 0.0 ], [ -96.419340189198195, 16.939391699167746, 0.0 ], [ -96.423076892984042, 16.94557195987823, 0.0 ], [ -96.418597112666447, 16.947907185368468, 0.0 ], [ -96.408935604194653, 16.951975896370698, 0.0 ], [ -96.404255745406203, 16.956395933825483, 0.0 ], [ -96.395498903651358, 16.964622367128722, 0.0 ], [ -96.379217147902864, 16.979986250964942, 0.0 ], [ -96.384426072904759, 16.972242298993098, 0.0 ], [ -96.384030935978771, 16.968306990725303, 0.0 ], [ -96.383819147885163, 16.966197717650726, 0.0 ], [ -96.383891305888852, 16.962520658701568, 0.0 ], [ -96.385291409570797, 16.958783767856737, 0.0 ], [ -96.382252027958543, 16.949329135831153, 0.0 ], [ -96.380337074096531, 16.945137693899653, 0.0 ], [ -96.381284957734437, 16.942377755029515, 0.0 ] ] ] ] } },
{ "type": "Feature", "properties": { "NOMBRE": "Danii Idoo (Cerro Iglesia)", "CAT_MANEJO": "ADVC", "ADVC": "Danii Idoo (Cerro Iglesia)", "FECHA_EXP": "24/10/2013", "VIGENCIA": "15 años", "NOM_059": "Flora: Rhynchostele cervantesii, Coryphantha retusa, Mammillaria karwinskiana. Fauna: Panthera onca, Bubo virginianus, Buteo albonotatus, Dendrortyx macroura, Lamprolaima rhami, Kinosternon integrum, Crotalus molossus, C. ravus.", "TIPO_PROP": "Comunidades", "HECTARES": 3189.376 }, "geometry": { "type": "MultiPolygon", "coordinates": [ [ [ [ -96.35215152257453, 16.992169264650048, 0.0 ], [ -96.354957428042738, 16.992779188009276, 0.0 ], [ -96.361367627863586, 16.994172231563471, 0.0 ], [ -96.365964790842227, 16.995171183203695, 0.0 ], [ -96.373674380168367, 16.986463207011553, 0.0 ], [ -96.378235021229074, 16.981111726874914, 0.0 ], [ -96.37921704223254, 16.979986371923722, 0.0 ], [ -96.381536800282987, 16.977801777929834, 0.0 ], [ -96.388596687886675, 16.971161544569739, 0.0 ], [ -96.395160329585423, 16.964942021257446, 0.0 ], [ -96.398686432832449, 16.968095131585233, 0.0 ], [ -96.402694269624689, 16.971308029741948, 0.0 ], [ -96.401523855041702, 16.976773542565152, 0.0 ], [ -96.403071126930797, 16.978409294253698, 0.0 ], [ -96.404129166727486, 16.978457911603542, 0.0 ], [ -96.405471954367073, 16.979037109175366, 0.0 ], [ -96.406593824445309, 16.979754015435621, 0.0 ], [ -96.407861701256351, 16.980472773399914, 0.0 ], [ -96.410321120423205, 16.982155218788488, 0.0 ], [ -96.410162092406495, 16.983101739953469, 0.0 ], [ -96.41043771392917, 16.984299698972109, 0.0 ], [ -96.410295403410004, 16.98668681444509, 0.0 ], [ -96.408449538615173, 16.988173974749351, 0.0 ], [ -96.407423599219584, 16.98844196012848, 0.0 ], [ -96.4062289443102, 16.990358962196506, 0.0 ], [ -96.40527213490094, 16.990908867050742, 0.0 ], [ -96.403789280550725, 16.992541126671799, 0.0 ], [ -96.402155057709592, 16.99455787344727, 0.0 ], [ -96.400075971728569, 16.99706075594931, 0.0 ], [ -96.398780395798497, 16.998344048938861, 0.0 ], [ -96.395636177967063, 16.998655149615658, 0.0 ], [ -96.393941440644838, 16.999757640203104, 0.0 ], [ -96.389861713846869, 16.999073014208424, 0.0 ], [ -96.388631279409822, 16.998284351042116, 0.0 ], [ -96.387169658952445, 16.998370985432768, 0.0 ], [ -96.386424965439616, 16.999415342044568, 0.0 ], [ -96.384841152297184, 17.000413790963822, 0.0 ], [ -96.386025813940051, 17.001869357185242, 0.0 ], [ -96.385996573383025, 17.003976816776813, 0.0 ], [ -96.385133067736717, 17.005687116867154, 0.0 ], [ -96.385225028811917, 17.006952997183273, 0.0 ], [ -96.38540602456824, 17.009695511239027, 0.0 ], [ -96.384296206304711, 17.010735159899852, 0.0 ], [ -96.382897257802057, 17.011560290575158, 0.0 ], [ -96.381935396001538, 17.01246130334663, 0.0 ], [ -96.381780087580808, 17.013126789070199, 0.0 ], [ -96.382059445786624, 17.014043775599944, 0.0 ], [ -96.38192989844589, 17.015482450754671, 0.0 ], [ -96.379939446947745, 17.016826908435199, 0.0 ], [ -96.378903054732049, 17.017832330697622, 0.0 ], [ -96.378743824367817, 17.018778798802703, 0.0 ], [ -96.378041364816994, 17.019402082040653, 0.0 ], [ -96.376867735157703, 17.019773379737853, 0.0 ], [ -96.376748908635093, 17.020439321417765, 0.0 ], [ -96.380444525094632, 17.020559921403347, 0.0 ], [ -96.37313395057123, 17.025218440179049, 0.0 ], [ -96.365634332258452, 17.027340143233175, 0.0 ], [ -96.364646316374248, 17.026582346598136, 0.0 ], [ -96.356103753385369, 17.02784799938583, 0.0 ], [ -96.352985970226172, 17.027489888447786, 0.0 ], [ -96.35190058384471, 17.028843563279949, 0.0 ], [ -96.348684856420846, 17.02913032470493, 0.0 ], [ -96.3476266700346, 17.028366076333469, 0.0 ], [ -96.347384809960857, 17.029127259815429, 0.0 ], [ -96.346397473964089, 17.028461205720269, 0.0 ], [ -96.344870556430848, 17.028654141775423, 0.0 ], [ -96.343291632902421, 17.029490697437851, 0.0 ], [ -96.332638990596791, 17.031982315931334, 0.0 ], [ -96.328343039799293, 17.002530822939228, 0.0 ], [ -96.324615501004445, 16.985289132187908, 0.0 ], [ -96.337396799022926, 16.988961640567453, 0.0 ], [ -96.35215152257453, 16.992169264650048, 0.0 ] ] ] ] } },
{ "type": "Feature", "properties": { "NOMBRE": "La Mina", "CAT_MANEJO": "ADVC", "ADVC": "La Mina", "FECHA_EXP": "30/01/2024", "VIGENCIA": "15 años", "NOM_059": "Fauna: salamandra pigmea de San Felipe (Thorius narisovalis), cuija mexicana (Aspidoscelis mexicanus), gavilán de Cooper (Accipiter cooperii), gavilán pecho canela (Accipiter striatus), aguililla aura (Buteo albonotatus)", "TIPO_PROP": "Prop.Social_Comunidad_TUC", "HECTARES": 795.937 }, "geometry": { "type": "MultiPolygon", "coordinates": [ [ [ [ -96.627279461377896, 17.02325825806232, 0.0 ], [ -96.62684436397609, 17.022775156648315, 0.0 ], [ -96.626588267634332, 17.022803232583264, 0.0 ], [ -96.626323444271421, 17.022546759425587, 0.0 ], [ -96.625980997724682, 17.021916876063148, 0.0 ], [ -96.625906980822407, 17.021832627573904, 0.0 ], [ -96.625273441715848, 17.020655532826783, 0.0 ], [ -96.625234784357644, 17.020595732407287, 0.0 ], [ -96.624983634287133, 17.020132931389789, 0.0 ], [ -96.624760563748865, 17.019718509401898, 0.0 ], [ -96.624690934638735, 17.018562814922099, 0.0 ], [ -96.624659609453246, 17.01851847474796, 0.0 ], [ -96.624499780140596, 17.017535342182477, 0.0 ], [ -96.624548245505011, 17.017510900407881, 0.0 ], [ -96.626659423793257, 17.016446530283321, 0.0 ], [ -96.628819712259769, 17.017997774477863, 0.0 ], [ -96.629673826285853, 17.017225163310787, 0.0 ], [ -96.630466225236006, 17.017443364919512, 0.0 ], [ -96.632159899559582, 17.01668934183979, 0.0 ], [ -96.629715516157972, 17.014905707432618, 0.0 ], [ -96.635559748783251, 17.011958950145615, 0.0 ], [ -96.641417924497532, 17.009036376527686, 0.0 ], [ -96.644669181437465, 17.007283578074826, 0.0 ], [ -96.648195377314707, 17.007631901691099, 0.0 ], [ -96.655472417018302, 17.006897348034368, 0.0 ], [ -96.658750119422351, 17.007822941975341, 0.0 ], [ -96.663260250959624, 17.009606015205637, 0.0 ], [ -96.644075725114448, 17.03960901474435, 0.0 ], [ -96.642925352822644, 17.041447410669583, 0.0 ], [ -96.640784575147805, 17.040578880511056, 0.0 ], [ -96.640257814346512, 17.037379919148147, 0.0 ], [ -96.638104644913199, 17.035801979477981, 0.0 ], [ -96.63540191596546, 17.032045168649777, 0.0 ], [ -96.635206643471719, 17.031172206632188, 0.0 ], [ -96.634773306043044, 17.030342983142351, 0.0 ], [ -96.63472215890036, 17.030259100677185, 0.0 ], [ -96.6340186264583, 17.029037968827367, 0.0 ], [ -96.633988839113542, 17.028986260507665, 0.0 ], [ -96.633933431882213, 17.028890081612182, 0.0 ], [ -96.633635664554149, 17.028305970144569, 0.0 ], [ -96.633515168889772, 17.02806960312984, 0.0 ], [ -96.633468892475236, 17.028052728251051, 0.0 ], [ -96.63330258624525, 17.027992075274209, 0.0 ], [ -96.632512524633171, 17.027466814542063, 0.0 ], [ -96.632352653052351, 17.027435858977892, 0.0 ], [ -96.632292427253546, 17.027403631772355, 0.0 ], [ -96.630537587339617, 17.026447360157707, 0.0 ], [ -96.630175494203598, 17.026213514842038, 0.0 ], [ -96.629469245808863, 17.02570656250797, 0.0 ], [ -96.629393258491959, 17.025649401598745, 0.0 ], [ -96.628494759325534, 17.024760459527734, 0.0 ], [ -96.628287903563788, 17.024361314323361, 0.0 ], [ -96.628139406608213, 17.024264552667148, 0.0 ], [ -96.627900226514072, 17.024049991514069, 0.0 ], [ -96.627559876287123, 17.02374466988077, 0.0 ], [ -96.627448511439511, 17.023644765993314, 0.0 ], [ -96.627279461377896, 17.02325825806232, 0.0 ] ] ] ] } },
{ "type": "Feature", "properties": { "NOMBRE": "Cerro de Guinas", "CAT_MANEJO": "ADVC", "ADVC": "Cerro de Guinas", "FECHA_EXP": "15/05/2024", "VIGENCIA": "99 años", "NOM_059": "Fauna: Sceloporus grammicus, Phrynosoma braconnieri, Myadestes occidentalis, Sceloporus tanneri, Thamnophis cyrtopsis, Abronia oaxacae", "TIPO_PROP": "Prop.Social_Ejido_TUC", "HECTARES": 1332.297 }, "geometry": { "type": "MultiPolygon", "coordinates": [ [ [ [ -96.464434694005746, 16.435585389754177, 0.0 ], [ -96.458893750546011, 16.424204620347133, 0.0 ], [ -96.460383288657724, 16.416273111615062, 0.0 ], [ -96.46191005240685, 16.398516848573927, 0.0 ], [ -96.462570035178871, 16.398177878806248, 0.0 ], [ -96.463565748360423, 16.398844040820016, 0.0 ], [ -96.464338819980441, 16.398624035171274, 0.0 ], [ -96.464453238026323, 16.398026284585526, 0.0 ], [ -96.464677903062622, 16.396090331104077, 0.0 ], [ -96.466719799379092, 16.394202032697859, 0.0 ], [ -96.470096760856691, 16.392436368543745, 0.0 ], [ -96.470603181691303, 16.392856338449409, 0.0 ], [ -96.471702146936394, 16.39319383242961, 0.0 ], [ -96.472805010742491, 16.395209089927729, 0.0 ], [ -96.473993419860292, 16.394968747909573, 0.0 ], [ -96.474865001418536, 16.394792427728579, 0.0 ], [ -96.474850558306485, 16.395273874389979, 0.0 ], [ -96.476555826689932, 16.396750693389937, 0.0 ], [ -96.476670921026042, 16.398181313317139, 0.0 ], [ -96.477127665109492, 16.399270626138666, 0.0 ], [ -96.479491533107591, 16.401100112480364, 0.0 ], [ -96.48008989433302, 16.40143255676724, 0.0 ], [ -96.481524018018902, 16.402229365093259, 0.0 ], [ -96.483585890975917, 16.403374851368532, 0.0 ], [ -96.484401137202539, 16.4032521964319, 0.0 ], [ -96.485890311088838, 16.403561600987285, 0.0 ], [ -96.486680090313769, 16.40411780199512, 0.0 ], [ -96.488216081107154, 16.404258387614721, 0.0 ], [ -96.488607970581228, 16.404267409613528, 0.0 ], [ -96.48854221754911, 16.405074239084993, 0.0 ], [ -96.489748659872589, 16.405380147076347, 0.0 ], [ -96.4899014367018, 16.40521550009543, 0.0 ], [ -96.490050044273929, 16.404770245750363, 0.0 ], [ -96.494066151231735, 16.405887135383189, 0.0 ], [ -96.494005280619035, 16.406241215559859, 0.0 ], [ -96.494446851340953, 16.406711941403127, 0.0 ], [ -96.49467098397858, 16.40663115260579, 0.0 ], [ -96.495178467811883, 16.407209250306856, 0.0 ], [ -96.494171240610115, 16.4099791415243, 0.0 ], [ -96.49357939767097, 16.410587298165463, 0.0 ], [ -96.493023095039632, 16.410860942978271, 0.0 ], [ -96.492108462035716, 16.411338873290585, 0.0 ], [ -96.491548402936303, 16.411584014990535, 0.0 ], [ -96.491016644602311, 16.41154884700185, 0.0 ], [ -96.491374713272279, 16.411919583522153, 0.0 ], [ -96.492027034719726, 16.412667970550565, 0.0 ], [ -96.492093020676265, 16.412718348773026, 0.0 ], [ -96.494326546332886, 16.413671686799113, 0.0 ], [ -96.495243313428077, 16.414430809034783, 0.0 ], [ -96.496988090827571, 16.416224118348548, 0.0 ], [ -96.497219264257495, 16.416369140323713, 0.0 ], [ -96.498169026579177, 16.416811416114058, 0.0 ], [ -96.498895067253343, 16.416497056294265, 0.0 ], [ -96.498606154650162, 16.416117489330855, 0.0 ], [ -96.497122993631066, 16.41140132671006, 0.0 ], [ -96.497084228354353, 16.411388399854967, 0.0 ], [ -96.4970607236733, 16.411184791545054, 0.0 ], [ -96.496916261975741, 16.410721585832661, 0.0 ], [ -96.497923572814528, 16.409537923336604, 0.0 ], [ -96.49838986500005, 16.409847792841557, 0.0 ], [ -96.498759752560346, 16.410195444664261, 0.0 ], [ -96.49911069770036, 16.410560845506787, 0.0 ], [ -96.499331475866796, 16.410852523525371, 0.0 ], [ -96.499551193732472, 16.411234517758949, 0.0 ], [ -96.499790550993026, 16.411544391760469, 0.0 ], [ -96.500159889067461, 16.411928166651713, 0.0 ], [ -96.500601178301608, 16.412547559422453, 0.0 ], [ -96.500931707931869, 16.413039173818966, 0.0 ], [ -96.501211457342748, 16.413608588565673, 0.0 ], [ -96.501351288431081, 16.413893160141424, 0.0 ], [ -96.501532337247369, 16.414365020029784, 0.0 ], [ -96.501823690610735, 16.415000692328249, 0.0 ], [ -96.50200691218906, 16.415309897234163, 0.0 ], [ -96.502094956716789, 16.415501987926632, 0.0 ], [ -96.502111074366397, 16.415595579472544, 0.0 ], [ -96.502063038877921, 16.415685516173863, 0.0 ], [ -96.501978812871769, 16.415736723571118, 0.0 ], [ -96.50191344924616, 16.415769186399032, 0.0 ], [ -96.501716319652317, 16.415786712387085, 0.0 ], [ -96.501437440785139, 16.415756836908695, 0.0 ], [ -96.501364263849567, 16.415807543383579, 0.0 ], [ -96.501427002354134, 16.415987861950491, 0.0 ], [ -96.501633284348443, 16.416543123166736, 0.0 ], [ -96.501686586266757, 16.416780868842185, 0.0 ], [ -96.50166221104206, 16.417238360262303, 0.0 ], [ -96.501554681802986, 16.417641026312541, 0.0 ], [ -96.501512602524414, 16.418026497325144, 0.0 ], [ -96.501610176268471, 16.418395653736642, 0.0 ], [ -96.501827843679905, 16.418829108976372, 0.0 ], [ -96.502027463496546, 16.419217546852476, 0.0 ], [ -96.502191542105834, 16.419479734302488, 0.0 ], [ -96.502318234998398, 16.419657561747201, 0.0 ], [ -96.502393363462815, 16.419754564421851, 0.0 ], [ -96.502605696095856, 16.420005131731621, 0.0 ], [ -96.502776644626309, 16.420176530822403, 0.0 ], [ -96.502876920833089, 16.420275729641375, 0.0 ], [ -96.502962758424431, 16.420428322109551, 0.0 ], [ -96.502966409671899, 16.420684625295404, 0.0 ], [ -96.502968047337347, 16.420812910887314, 0.0 ], [ -96.503030280422962, 16.42101833402905, 0.0 ], [ -96.503090847064797, 16.421346854573905, 0.0 ], [ -96.503100091196089, 16.421561042508245, 0.0 ], [ -96.502996259969279, 16.421945236483619, 0.0 ], [ -96.50274714866184, 16.422602749717292, 0.0 ], [ -96.50243909129081, 16.423134365958404, 0.0 ], [ -96.502438032788831, 16.423217184525605, 0.0 ], [ -96.50241718200725, 16.42344275607849, 0.0 ], [ -96.502338427476261, 16.423739267952975, 0.0 ], [ -96.502117800396078, 16.424049628487783, 0.0 ], [ -96.501792889729941, 16.424391083082146, 0.0 ], [ -96.501408553661705, 16.42465884542947, 0.0 ], [ -96.501210102963768, 16.42481563953039, 0.0 ], [ -96.500919410602222, 16.425020654379871, 0.0 ], [ -96.500610305521008, 16.425260224779759, 0.0 ], [ -96.500192646872975, 16.425623244217459, 0.0 ], [ -96.499541101540402, 16.426249670586049, 0.0 ], [ -96.499116959679768, 16.42662895965892, 0.0 ], [ -96.498761945107489, 16.426835551919314, 0.0 ], [ -96.498067520999172, 16.427074950548668, 0.0 ], [ -96.497290242350644, 16.427309021594283, 0.0 ], [ -96.496803090390188, 16.427390104469918, 0.0 ], [ -96.496298545541336, 16.427418769460765, 0.0 ], [ -96.49568951385983, 16.427370220459441, 0.0 ], [ -96.495345547458911, 16.427320498742208, 0.0 ], [ -96.495111733619481, 16.427300363820937, 0.0 ], [ -96.494716830517177, 16.427208753481342, 0.0 ], [ -96.494388645419548, 16.427147295611345, 0.0 ], [ -96.494125648579683, 16.427045516637495, 0.0 ], [ -96.49392921865838, 16.426978496460642, 0.0 ], [ -96.493649720158288, 16.42679152111193, 0.0 ], [ -96.493373211004766, 16.426648842769993, 0.0 ], [ -96.493040102118854, 16.426519036424558, 0.0 ], [ -96.492854806703789, 16.42640120365278, 0.0 ], [ -96.49250094955903, 16.426247301771731, 0.0 ], [ -96.492244945847446, 16.426206124513236, 0.0 ], [ -96.491758910844922, 16.42620031399349, 0.0 ], [ -96.491676411536986, 16.426247652507314, 0.0 ], [ -96.491547172663758, 16.426436517331581, 0.0 ], [ -96.491340574108065, 16.426607565686773, 0.0 ], [ -96.490919388318972, 16.426755542834229, 0.0 ], [ -96.490704967460132, 16.426712150545463, 0.0 ], [ -96.490492473848434, 16.426671761992349, 0.0 ], [ -96.490188382487744, 16.426607333661718, 0.0 ], [ -96.489880411451679, 16.426436995770956, 0.0 ], [ -96.48954328079769, 16.426278051391158, 0.0 ], [ -96.489323393859408, 16.426201260979553, 0.0 ], [ -96.489130992900883, 16.426134104105767, 0.0 ], [ -96.488932330862198, 16.426088007555652, 0.0 ], [ -96.488736096093859, 16.426042482974399, 0.0 ], [ -96.488542504432871, 16.425966006426194, 0.0 ], [ -96.488106402488313, 16.426000168073465, 0.0 ], [ -96.487548410030954, 16.425993487009976, 0.0 ], [ -96.486654492011013, 16.425996509631407, 0.0 ], [ -96.486413954839975, 16.425997331611757, 0.0 ], [ -96.485963726344721, 16.426009280004472, 0.0 ], [ -96.485459186891816, 16.426038008847222, 0.0 ], [ -96.484592301593324, 16.426107646950516, 0.0 ], [ -96.483862406424734, 16.426208371019694, 0.0 ], [ -96.483322524514762, 16.426307035641397, 0.0 ], [ -96.48317411389408, 16.426377877936844, 0.0 ], [ -96.482974665848005, 16.426371240040844, 0.0 ], [ -96.482873296065662, 16.426495667541232, 0.0 ], [ -96.481686111824416, 16.427003508405363, 0.0 ], [ -96.481336318715989, 16.427130553832118, 0.0 ], [ -96.481005260284419, 16.427285283089546, 0.0 ], [ -96.480870429426588, 16.427377152433831, 0.0 ], [ -96.478943222751383, 16.428689569068524, 0.0 ], [ -96.472086119678536, 16.433520333197009, 0.0 ], [ -96.464434694005746, 16.435585389754177, 0.0 ] ] ] ] } },
{ "type": "Feature", "properties": { "NOMBRE": "La Muralla", "CAT_MANEJO": "ADVC", "ADVC": "La Muralla", "FECHA_EXP": "15/05/2025", "VIGENCIA": "15 años", "NOM_059": "Flora: Beaucarnea gracilis, Cephalocereus fulviceps, Dioon merolae, Furcraea macdougallii, Gossypium gossypioides, Gossypium hirsutum.Fauna: Ctenosaura pectinata, Lepidophyma radula, Porthidium dunni, Thamnophis cyrtopsis, Campylorhynchus rufinucha", "TIPO_PROP": "Propiedad social", "HECTARES": 8019.775 }, "geometry": { "type": "MultiPolygon", "coordinates": [ [ [ [ -95.947081830131481, 16.465933657366946, 0.0 ], [ -95.94014653572053, 16.462354195770491, 0.0 ], [ -95.912228106748387, 16.446103796104815, 0.0 ], [ -95.891694350346071, 16.436581165385352, 0.0 ], [ -95.892948265903144, 16.436723661954758, 0.0 ], [ -95.893869349527023, 16.436560576609114, 0.0 ], [ -95.894232405782844, 16.436757294093539, 0.0 ], [ -95.895137434984932, 16.437247667658085, 0.0 ], [ -95.895995803565583, 16.437596038059308, 0.0 ], [ -95.896764292027328, 16.437907927100142, 0.0 ], [ -95.896764322859212, 16.437907923965046, 0.0 ], [ -95.897383557473503, 16.437896554712367, 0.0 ], [ -95.897383585592536, 16.437896557935833, 0.0 ], [ -95.898572888355673, 16.438173968895693, 0.0 ], [ -95.898572916407758, 16.438173967604722, 0.0 ], [ -95.900367281739875, 16.437658644402156, 0.0 ], [ -95.900367309791747, 16.437658643111018, 0.0 ], [ -95.901888952895106, 16.438021621174439, 0.0 ], [ -95.901888981963126, 16.438021625287135, 0.0 ], [ -95.905424724296438, 16.438336090783146, 0.0 ], [ -95.905424753257023, 16.438336087672681, 0.0 ], [ -95.906539631336841, 16.438004028993987, 0.0 ], [ -95.907644862224188, 16.43829985387141, 0.0 ], [ -95.908008535994995, 16.438605638259439, 0.0 ], [ -95.908008564915107, 16.438605632440094, 0.0 ], [ -95.908392939594563, 16.438528231371983, 0.0 ], [ -95.908392969463634, 16.438528226442379, 0.0 ], [ -95.908834162219989, 16.437826572814224, 0.0 ], [ -95.908893325122236, 16.437309622159599, 0.0 ], [ -95.909485172576339, 16.437365344975195, 0.0 ], [ -95.909485198689751, 16.437365339194695, 0.0 ], [ -95.909858063506306, 16.4371430220666, 0.0 ], [ -95.909858085729567, 16.437143006406906, 0.0 ], [ -95.910035700779105, 16.436989035122618, 0.0 ], [ -95.910344864338668, 16.437039172588715, 0.0 ], [ -95.910344892430672, 16.437039174004706, 0.0 ], [ -95.910609644793638, 16.436094096401714, 0.0 ], [ -95.91049640539012, 16.435724467569358, 0.0 ], [ -95.910583148767302, 16.435039952119791, 0.0 ], [ -95.911879994070063, 16.434130954027445, 0.0 ], [ -95.911880018204201, 16.434130941049986, 0.0 ], [ -95.913320309057227, 16.433501846326251, 0.0 ], [ -95.91332033614583, 16.433501843240734, 0.0 ], [ -95.914692065592973, 16.433786996608962, 0.0 ], [ -95.915226843935343, 16.434146910022321, 0.0 ], [ -95.915701110200814, 16.434969425344054, 0.0 ], [ -95.917744807045878, 16.436277544912567, 0.0 ], [ -95.917744836927682, 16.436277540884536, 0.0 ], [ -95.919297655981012, 16.436123931414485, 0.0 ], [ -95.919297684005187, 16.43612392831518, 0.0 ], [ -95.920437377319374, 16.435196397632204, 0.0 ], [ -95.921026164004317, 16.435094107500955, 0.0 ], [ -95.921026190049275, 16.435094097204935, 0.0 ], [ -95.921901065429651, 16.434484912943169, 0.0 ], [ -95.921901091474496, 16.434484902647014, 0.0 ], [ -95.922571448964376, 16.433429084085912, 0.0 ], [ -95.923818142397451, 16.432462220886766, 0.0 ], [ -95.923818165581352, 16.432462207018325, 0.0 ], [ -95.924471055046098, 16.432077711207853, 0.0 ], [ -95.924471082066432, 16.432077703606822, 0.0 ], [ -95.925025094832392, 16.432046375003971, 0.0 ], [ -95.925753659202599, 16.431513555721089, 0.0 ], [ -95.927256557705562, 16.431237408120609, 0.0 ], [ -95.927256583763196, 16.431237398726758, 0.0 ], [ -95.92787616309775, 16.430862332004079, 0.0 ], [ -95.928309792849987, 16.431082610196079, 0.0 ], [ -95.928712138694209, 16.432039028655552, 0.0 ], [ -95.928712167679933, 16.432039027347713, 0.0 ], [ -95.929496282899891, 16.432130818808162, 0.0 ], [ -95.929496311885615, 16.432130817500237, 0.0 ], [ -95.930649626516043, 16.431876475964096, 0.0 ], [ -95.930925590243518, 16.432158200327219, 0.0 ], [ -95.931517606296552, 16.43157784407401, 0.0 ], [ -95.931671933065232, 16.431224286936221, 0.0 ], [ -95.932168460048601, 16.431403596262285, 0.0 ], [ -95.932803310660177, 16.430746668586664, 0.0 ], [ -95.934484144337006, 16.43021517456625, 0.0 ], [ -95.934484172373345, 16.43021517236787, 0.0 ], [ -95.936465845902433, 16.430481323198418, 0.0 ], [ -95.936705766573823, 16.430707331928627, 0.0 ], [ -95.937082350450439, 16.431013247051297, 0.0 ], [ -95.9366678207451, 16.431029013747466, 0.0 ], [ -95.936667790851416, 16.431029016875119, 0.0 ], [ -95.936352610120082, 16.431309175477224, 0.0 ], [ -95.936471082573092, 16.431522920076752, 0.0 ], [ -95.936471110650288, 16.431522920586598, 0.0 ], [ -95.937174093750968, 16.431669662354121, 0.0 ], [ -95.937893002975244, 16.432816228187438, 0.0 ], [ -95.937915943579284, 16.433046056105855, 0.0 ], [ -95.937741464856174, 16.433349002030287, 0.0 ], [ -95.937734304362081, 16.43354909876772, 0.0 ], [ -95.937845085109814, 16.43360598687147, 0.0 ], [ -95.937845113092195, 16.433605981061365, 0.0 ], [ -95.938099734105961, 16.43353279547679, 0.0 ], [ -95.938099762074756, 16.433532788763859, 0.0 ], [ -95.938298591190218, 16.432841883403956, 0.0 ], [ -95.938101572171803, 16.432205456861162, 0.0 ], [ -95.938168390637671, 16.432109666781319, 0.0 ], [ -95.938449638989709, 16.432003074426579, 0.0 ], [ -95.938449666944706, 16.432003066810857, 0.0 ], [ -95.938715099621888, 16.431738901167108, 0.0 ], [ -95.939379179574431, 16.431400586415243, 0.0 ], [ -95.939379201821396, 16.431400572558378, 0.0 ], [ -95.939709438603515, 16.431118481435497, 0.0 ], [ -95.939780440868645, 16.430865032002352, 0.0 ], [ -95.939117188691426, 16.430414303597754, 0.0 ], [ -95.939074251500614, 16.430029738327889, 0.0 ], [ -95.938365330859497, 16.429758720747774, 0.0 ], [ -95.938309189177758, 16.429490733127459, 0.0 ], [ -95.93832530650991, 16.429227067069952, 0.0 ], [ -95.938499890641623, 16.428547411802136, 0.0 ], [ -95.938991492987213, 16.42861598503865, 0.0 ], [ -95.939189214402532, 16.429185739962399, 0.0 ], [ -95.939769427269752, 16.430106914955353, 0.0 ], [ -95.94039045971212, 16.430446651551964, 0.0 ], [ -95.941040546521407, 16.430802277591841, 0.0 ], [ -95.941348422619342, 16.430989907713993, 0.0 ], [ -95.941695042524316, 16.431201149853234, 0.0 ], [ -95.942321503444418, 16.431506922170758, 0.0 ], [ -95.942766182352116, 16.43243615298849, 0.0 ], [ -95.942934120612406, 16.432646913028993, 0.0 ], [ -95.943089262138415, 16.432531329961815, 0.0 ], [ -95.943097216586452, 16.432186401061749, 0.0 ], [ -95.943527020534702, 16.431915601296158, 0.0 ], [ -95.943527045655756, 16.431915591913484, 0.0 ], [ -95.943990874476839, 16.431317515972609, 0.0 ], [ -95.944038122162098, 16.43125659391497, 0.0 ], [ -95.94422030536829, 16.431214226539392, 0.0 ], [ -95.944539260235217, 16.431140052947999, 0.0 ], [ -95.944539287363028, 16.431140052567081, 0.0 ], [ -95.945193681954976, 16.43128319493205, 0.0 ], [ -95.945180261274672, 16.43161013393793, 0.0 ], [ -95.943868225176118, 16.4322844708425, 0.0 ], [ -95.943868198170549, 16.432284479348588, 0.0 ], [ -95.94402283542567, 16.432548260281379, 0.0 ], [ -95.94402286435664, 16.432548255360285, 0.0 ], [ -95.944317893645731, 16.432504213851189, 0.0 ], [ -95.944817684672657, 16.432964885134727, 0.0 ], [ -95.945069806115768, 16.432769509920284, 0.0 ], [ -95.945462754435624, 16.432788541729828, 0.0 ], [ -95.945624594101417, 16.433161566219479, 0.0 ], [ -95.945624619222443, 16.433161556836708, 0.0 ], [ -95.946141130035002, 16.432787913520876, 0.0 ], [ -95.946918396232846, 16.432806036321157, 0.0 ], [ -95.947246938209432, 16.432934945897596, 0.0 ], [ -95.947955426994724, 16.433605380118742, 0.0 ], [ -95.947955454136434, 16.433605380640163, 0.0 ], [ -95.948599021036515, 16.433761819555013, 0.0 ], [ -95.948867856297483, 16.433564101147958, 0.0 ], [ -95.948883887528623, 16.433277575666505, 0.0 ], [ -95.949307931771969, 16.432786928491428, 0.0 ], [ -95.949434869684708, 16.432751406234051, 0.0 ], [ -95.949696670294514, 16.432793603474625, 0.0 ], [ -95.949957709526018, 16.432781923256883, 0.0 ], [ -95.950165163252223, 16.432700994991237, 0.0 ], [ -95.950484489022429, 16.432824062795849, 0.0 ], [ -95.950986927971528, 16.433010739443993, 0.0 ], [ -95.950770225540978, 16.433334591276953, 0.0 ], [ -95.951070631645067, 16.433452313054474, 0.0 ], [ -95.951367256303229, 16.433486157316047, 0.0 ], [ -95.951901396172588, 16.433558800707857, 0.0 ], [ -95.952219353171657, 16.43328370682762, 0.0 ], [ -95.95256985605252, 16.433469802351826, 0.0 ], [ -95.952920401078444, 16.433694656511069, 0.0 ], [ -95.953059141002072, 16.433942522551725, 0.0 ], [ -95.953221942103596, 16.434069595274586, 0.0 ], [ -95.953726936814633, 16.434211870024125, 0.0 ], [ -95.954338348702009, 16.434330482752827, 0.0 ], [ -95.954826318994222, 16.434730509560062, 0.0 ], [ -95.955121976042264, 16.434891400389024, 0.0 ], [ -95.955204603351305, 16.435089654220985, 0.0 ], [ -95.955156321134879, 16.435164976684732, 0.0 ], [ -95.955056797370844, 16.435193533295646, 0.0 ], [ -95.95496916052447, 16.43534917047165, 0.0 ], [ -95.954849515490451, 16.435475116138509, 0.0 ], [ -95.954790383652593, 16.435622624634668, 0.0 ], [ -95.954931398804419, 16.4357111299718, 0.0 ], [ -95.955068033465949, 16.435774544215889, 0.0 ], [ -95.955265464393506, 16.435894273984843, 0.0 ], [ -95.955429595024697, 16.43595902053206, 0.0 ], [ -95.955691012771624, 16.435775980862221, 0.0 ], [ -95.955616198510896, 16.435932913864079, 0.0 ], [ -95.955537096869477, 16.4360503429041, 0.0 ], [ -95.954814238891146, 16.436727577293279, 0.0 ], [ -95.954643199206089, 16.437206077732309, 0.0 ], [ -95.95446358823969, 16.437637037429624, 0.0 ], [ -95.954349643103612, 16.438273662622663, 0.0 ], [ -95.954006386701181, 16.438788109990902, 0.0 ], [ -95.953276993406078, 16.438867216765203, 0.0 ], [ -95.9531487858265, 16.439471949762542, 0.0 ], [ -95.952927385277661, 16.440223658762413, 0.0 ], [ -95.952846741329452, 16.440655048473445, 0.0 ], [ -95.953289991524386, 16.441049959352629, 0.0 ], [ -95.953728659611087, 16.441093485991829, 0.0 ], [ -95.953994969646928, 16.44069695883605, 0.0 ], [ -95.954078505588711, 16.440332255513049, 0.0 ], [ -95.954371996565357, 16.439941362524838, 0.0 ], [ -95.954139115663565, 16.439630549634987, 0.0 ], [ -95.954270076362604, 16.439311382895323, 0.0 ], [ -95.954551806747048, 16.438941855121087, 0.0 ], [ -95.954832115290131, 16.438414103058854, 0.0 ], [ -95.955173471167967, 16.438168409745455, 0.0 ], [ -95.955548157779759, 16.438521249916814, 0.0 ], [ -95.955845633311512, 16.438591998592901, 0.0 ], [ -95.955857384583823, 16.438582000250793, 0.0 ], [ -95.955814423152958, 16.438280418727857, 0.0 ], [ -95.955627775416573, 16.437753759233569, 0.0 ], [ -95.955184412805295, 16.437744061704841, 0.0 ], [ -95.955220920793238, 16.437297655337201, 0.0 ], [ -95.955359524577318, 16.43679166625838, 0.0 ], [ -95.955738305886072, 16.436334870951146, 0.0 ], [ -95.956204216635996, 16.435955816392948, 0.0 ], [ -95.956326593070443, 16.435898776381908, 0.0 ], [ -95.956529347141966, 16.436005618176143, 0.0 ], [ -95.959445790387321, 16.436531812984065, 0.0 ], [ -95.960046405373092, 16.436647320802411, 0.0 ], [ -95.961372674715008, 16.436882559448069, 0.0 ], [ -95.961566931985004, 16.436919982489993, 0.0 ], [ -95.961567836879397, 16.436937631155658, 0.0 ], [ -95.961733119507997, 16.437043135648228, 0.0 ], [ -95.961694422373498, 16.437197692493392, 0.0 ], [ -95.961491465245416, 16.437328121676195, 0.0 ], [ -95.961148953551529, 16.437565119245473, 0.0 ], [ -95.960886207968144, 16.437744979388285, 0.0 ], [ -95.960642042951321, 16.437883422441278, 0.0 ], [ -95.960542245400035, 16.438020231716216, 0.0 ], [ -95.960198337537463, 16.43815772629198, 0.0 ], [ -95.959963219424097, 16.438341471877688, 0.0 ], [ -95.960094148328139, 16.438587022551186, 0.0 ], [ -95.960215566602628, 16.438751498436076, 0.0 ], [ -95.960423165706672, 16.438941698445191, 0.0 ], [ -95.960555586047931, 16.439150036412144, 0.0 ], [ -95.960842410223307, 16.439051355799606, 0.0 ], [ -95.960935086095432, 16.43892253450985, 0.0 ], [ -95.961090438727112, 16.438747959416709, 0.0 ], [ -95.961244004424998, 16.438568726620598, 0.0 ], [ -95.961464176266375, 16.438377106495093, 0.0 ], [ -95.961383004955024, 16.438215900525343, 0.0 ], [ -95.961445671077726, 16.43812751247204, 0.0 ], [ -95.961729597863723, 16.43792932429292, 0.0 ], [ -95.96201745016846, 16.437818836735353, 0.0 ], [ -95.962022838378715, 16.437459280384694, 0.0 ], [ -95.962126020805371, 16.437388587026341, 0.0 ], [ -95.96251900203363, 16.437315791941327, 0.0 ], [ -95.962785330903543, 16.437216775792049, 0.0 ], [ -95.96286178286519, 16.437169440836087, 0.0 ], [ -95.962967190737132, 16.437189748028572, 0.0 ], [ -95.964227707993871, 16.436994573323769, 0.0 ], [ -95.965479953152794, 16.436875660368433, 0.0 ], [ -95.967586510858069, 16.437693705846261, 0.0 ], [ -95.97000831400446, 16.437136365873648, 0.0 ], [ -95.970992215562305, 16.437409549928464, 0.0 ], [ -95.972387756337199, 16.437789654894097, 0.0 ], [ -95.973719137474049, 16.438154940964736, 0.0 ], [ -95.973753239736666, 16.438166271675865, 0.0 ], [ -95.973787700677335, 16.438193777696934, 0.0 ], [ -95.97381185012928, 16.438185743540068, 0.0 ], [ -95.977440997107323, 16.439391459072301, 0.0 ], [ -95.978104061266336, 16.43961516343656, 0.0 ], [ -95.979308735633552, 16.440271394353392, 0.0 ], [ -95.979974049467558, 16.440645783822394, 0.0 ], [ -95.98139001971397, 16.441396403112808, 0.0 ], [ -95.983780579719834, 16.442673583014347, 0.0 ], [ -95.984805828881292, 16.443421895509616, 0.0 ], [ -95.984938214857607, 16.443518519814873, 0.0 ], [ -95.985790404622264, 16.444101061504583, 0.0 ], [ -95.986716427708501, 16.444791610282312, 0.0 ], [ -95.987493330783607, 16.445372982571008, 0.0 ], [ -95.988198491116378, 16.445709897305886, 0.0 ], [ -95.989565994088849, 16.446717595170551, 0.0 ], [ -95.99039828155901, 16.447404978874573, 0.0 ], [ -95.991523665169524, 16.448520263925339, 0.0 ], [ -95.991736055145438, 16.448739493081312, 0.0 ], [ -95.992369107609719, 16.449840488607364, 0.0 ], [ -95.992970832506444, 16.450875759734323, 0.0 ], [ -95.995860031078834, 16.451011981926403, 0.0 ], [ -95.996445404350638, 16.450982722351505, 0.0 ], [ -95.996899073547013, 16.450861555338207, 0.0 ], [ -95.998313094285862, 16.450614682585371, 0.0 ], [ -95.9996854742826, 16.450458531074844, 0.0 ], [ -96.001709770785325, 16.450211887611022, 0.0 ], [ -96.003857814009962, 16.450155773451538, 0.0 ], [ -96.004743648785279, 16.450157912970244, 0.0 ], [ -96.005140089803746, 16.44896816648383, 0.0 ], [ -96.005384555776786, 16.448386341983479, 0.0 ], [ -96.005707710296036, 16.447982656003386, 0.0 ], [ -96.006055820761432, 16.447774687593554, 0.0 ], [ -96.006036039050116, 16.447608380456032, 0.0 ], [ -96.005868024271962, 16.4474598411174, 0.0 ], [ -96.005598582091039, 16.447031396882789, 0.0 ], [ -96.005313935233985, 16.446322219307774, 0.0 ], [ -96.004914751215381, 16.445934281082792, 0.0 ], [ -96.004656805868962, 16.44538858507492, 0.0 ], [ -96.004878427642595, 16.445080136552811, 0.0 ], [ -96.004864962631501, 16.444677601903638, 0.0 ], [ -96.004734415648016, 16.444179971341335, 0.0 ], [ -96.004891731186774, 16.443798305477184, 0.0 ], [ -96.005131338889328, 16.443115178911338, 0.0 ], [ -96.005490059020261, 16.44280640382247, 0.0 ], [ -96.00541876222583, 16.442557423217512, 0.0 ], [ -96.005397357225036, 16.442195595680559, 0.0 ], [ -96.005376118365021, 16.441836584755642, 0.0 ], [ -96.005240348837802, 16.440918941307451, 0.0 ], [ -96.005039249037409, 16.439502614133843, 0.0 ], [ -96.005029878422107, 16.439431674350992, 0.0 ], [ -96.003967152292461, 16.434535401315504, 0.0 ], [ -96.002919695238475, 16.432693126069307, 0.0 ], [ -96.00255022795568, 16.429871322445671, 0.0 ], [ -96.002716522929333, 16.42839040360888, 0.0 ], [ -96.002838007186526, 16.427308491347279, 0.0 ], [ -96.004314572859045, 16.424711933360246, 0.0 ], [ -96.005459863602169, 16.422518308366229, 0.0 ], [ -96.007658827133085, 16.418461134773782, 0.0 ], [ -96.011066846297965, 16.412547986917055, 0.0 ], [ -96.011021247959789, 16.411206752805814, 0.0 ], [ -96.010676608157411, 16.410686102069324, 0.0 ], [ -96.010629186319051, 16.410359434535732, 0.0 ], [ -96.010681742077551, 16.410061646984484, 0.0 ], [ -96.010676276208315, 16.409994146729122, 0.0 ], [ -96.010721437871041, 16.409739390607989, 0.0 ], [ -96.010630485376907, 16.408976195376301, 0.0 ], [ -96.010306920235351, 16.408233181800512, 0.0 ], [ -96.010117044953105, 16.407797159311723, 0.0 ], [ -96.010009199840354, 16.407549508063209, 0.0 ], [ -96.009964045648886, 16.40751635343269, 0.0 ], [ -96.009363980975053, 16.40644763169492, 0.0 ], [ -96.007991607691253, 16.405899513111436, 0.0 ], [ -96.007487020522561, 16.40575797685964, 0.0 ], [ -96.006996046679163, 16.405620257953252, 0.0 ], [ -96.006130631571907, 16.405879987790225, 0.0 ], [ -96.005608565862531, 16.406243820685496, 0.0 ], [ -96.005175538322447, 16.405885214277319, 0.0 ], [ -96.004586868898954, 16.405681141707383, 0.0 ], [ -96.004431502586712, 16.405079721946333, 0.0 ], [ -96.004235375513929, 16.404768352784874, 0.0 ], [ -96.003774319951376, 16.40403638838059, 0.0 ], [ -96.003321134481183, 16.403522961638966, 0.0 ], [ -96.003073159332629, 16.403408897865191, 0.0 ], [ -96.00346516300182, 16.401737181017555, 0.0 ], [ -96.003409370203258, 16.400141996095375, 0.0 ], [ -96.00317270497311, 16.397622513505432, 0.0 ], [ -96.00259781987333, 16.395634412981469, 0.0 ], [ -96.001043784585477, 16.394836862348491, 0.0 ], [ -95.999868090197964, 16.394632054852128, 0.0 ], [ -95.999963449077029, 16.393470707475387, 0.0 ], [ -95.99989257920204, 16.392798642544758, 0.0 ], [ -96.000083603662077, 16.392100974210567, 0.0 ], [ -95.999328913707743, 16.390030028801075, 0.0 ], [ -95.999496223851438, 16.388820803291228, 0.0 ], [ -95.999541531498139, 16.38861289122551, 0.0 ], [ -96.000520973337913, 16.383981815070229, 0.0 ], [ -96.000584434979345, 16.383614980396484, 0.0 ], [ -96.000565949622725, 16.383291271382085, 0.0 ], [ -96.000525367862309, 16.382580637163695, 0.0 ], [ -96.00058337736948, 16.381871724552251, 0.0 ], [ -96.000688993485838, 16.381984300706936, 0.0 ], [ -96.001590746681956, 16.38235929090666, 0.0 ], [ -96.002218056788934, 16.382309951710134, 0.0 ], [ -96.002904544852413, 16.382210682445198, 0.0 ], [ -96.003171725870345, 16.381743639675616, 0.0 ], [ -96.003207460511319, 16.381454266705287, 0.0 ], [ -96.003318750961597, 16.381275666572435, 0.0 ], [ -96.003405292838551, 16.381223155896382, 0.0 ], [ -96.003744931672728, 16.381165813211616, 0.0 ], [ -96.00385050309535, 16.380911217724279, 0.0 ], [ -96.003974477819611, 16.380862681432163, 0.0 ], [ -96.004539578183312, 16.380985232291422, 0.0 ], [ -96.004875967078405, 16.38086790757, 0.0 ], [ -96.005138274004992, 16.380690734991568, 0.0 ], [ -96.005297139778563, 16.380516510709128, 0.0 ], [ -96.005385225183261, 16.380018157916208, 0.0 ], [ -96.005526030652547, 16.379673313544956, 0.0 ], [ -96.005623466826449, 16.37966536533208, 0.0 ], [ -96.005727915688169, 16.379830012617273, 0.0 ], [ -96.0059013180866, 16.380342522120589, 0.0 ], [ -96.006148772586911, 16.380521766994029, 0.0 ], [ -96.006287981054044, 16.380746394141141, 0.0 ], [ -96.006426494115814, 16.381547219692564, 0.0 ], [ -96.006749036608767, 16.381625700815544, 0.0 ], [ -96.007318452229953, 16.381838286826671, 0.0 ], [ -96.007643315882291, 16.381829810306833, 0.0 ], [ -96.007767251890826, 16.381797385605552, 0.0 ], [ -96.007858838445969, 16.381715305153598, 0.0 ], [ -96.007590094197312, 16.380887160002921, 0.0 ], [ -96.007448825200356, 16.380774825114251, 0.0 ], [ -96.007384729854536, 16.380694739626012, 0.0 ], [ -96.007448796883395, 16.380653841299704, 0.0 ], [ -96.007733477566276, 16.380775399024113, 0.0 ], [ -96.008012141707624, 16.381086828068138, 0.0 ], [ -96.008159690866094, 16.381122131894717, 0.0 ], [ -96.00824572225315, 16.381059631927148, 0.0 ], [ -96.008230680157808, 16.380730905390056, 0.0 ], [ -96.008114442269246, 16.3803090737565, 0.0 ], [ -96.008222361876349, 16.380218995993591, 0.0 ], [ -96.008445267103397, 16.380168466681592, 0.0 ], [ -96.008871046013354, 16.379875918367127, 0.0 ], [ -96.009116054764945, 16.37959575707541, 0.0 ], [ -96.009453955192782, 16.379388941300764, 0.0 ], [ -96.009765252270398, 16.378915237091118, 0.0 ], [ -96.010002158206021, 16.378630974306258, 0.0 ], [ -96.009946480239009, 16.37794362515255, 0.0 ], [ -96.009971257982386, 16.37740774061362, 0.0 ], [ -96.010105966547982, 16.376789205539499, 0.0 ], [ -96.010225015168288, 16.376497635481801, 0.0 ], [ -96.010354515256367, 16.376350112001973, 0.0 ], [ -96.01046463973104, 16.375830387743999, 0.0 ], [ -96.010476885098939, 16.375814861354225, 0.0 ], [ -96.011300896765292, 16.376223840421329, 0.0 ], [ -96.016052470913564, 16.378582031113403, 0.0 ], [ -96.042303909673151, 16.391606586091729, 0.0 ], [ -96.042303933622946, 16.391606562268858, 0.0 ], [ -96.042303962837693, 16.391606576292777, 0.0 ], [ -96.049114445763394, 16.402163803815355, 0.0 ], [ -96.045620570772726, 16.440124145328195, 0.0 ], [ -96.018498098010042, 16.462896755923676, 0.0 ], [ -95.999363499151144, 16.466427035996961, 0.0 ], [ -95.999363472061404, 16.466427039094114, 0.0 ], [ -95.986807345401658, 16.466947770574361, 0.0 ], [ -95.982614118802076, 16.465576283709328, 0.0 ], [ -95.964961800002357, 16.474056821515532, 0.0 ], [ -95.963751656684195, 16.473507098150694, 0.0 ], [ -95.947081830131481, 16.465933657366946, 0.0 ] ] ], [ [ [ -95.907691599547107, 16.438230802697426, 0.0 ], [ -95.906548158140623, 16.437889246087064, 0.0 ], [ -95.90654812923394, 16.437889252809061, 0.0 ], [ -95.905415418301246, 16.43824483218642, 0.0 ], [ -95.905415389340675, 16.438244835296992, 0.0 ], [ -95.901921345293303, 16.437928399680747, 0.0 ], [ -95.901921317147441, 16.437928394652335, 0.0 ], [ -95.900362399823365, 16.437579320701317, 0.0 ], [ -95.900362371771408, 16.437579321992519, 0.0 ], [ -95.898569459608964, 16.438100083750395, 0.0 ], [ -95.897428541915033, 16.437805213944007, 0.0 ], [ -95.897428513782558, 16.437805209817768, 0.0 ], [ -95.896769402808928, 16.43781906540314, 0.0 ], [ -95.896660765143466, 16.437776426654025, 0.0 ], [ -95.896040530898148, 16.437532991113617, 0.0 ], [ -95.895177530733534, 16.437194269576818, 0.0 ], [ -95.893888464813742, 16.4364669999988, 0.0 ], [ -95.893888434022145, 16.43646700584204, 0.0 ], [ -95.892923332098064, 16.436645916513427, 0.0 ], [ -95.892411413643273, 16.436590352355129, 0.0 ], [ -95.891544437183541, 16.436496246035297, 0.0 ], [ -95.885813814585418, 16.433234852483285, 0.0 ], [ -95.920593628784133, 16.406671354476661, 0.0 ], [ -95.920764647385099, 16.406507291137451, 0.0 ], [ -95.924684487257736, 16.403635294687387, 0.0 ], [ -95.925185735420996, 16.403920952837225, 0.0 ], [ -95.926186854922506, 16.404272583628078, 0.0 ], [ -95.926363218523846, 16.405152937881201, 0.0 ], [ -95.926723891198066, 16.405563027328636, 0.0 ], [ -95.927241919956089, 16.405861236573642, 0.0 ], [ -95.928254816932707, 16.406123642885717, 0.0 ], [ -95.929038949144186, 16.405989110723244, 0.0 ], [ -95.9301633983344, 16.406144482742199, 0.0 ], [ -95.930602054610503, 16.406528375785687, 0.0 ], [ -95.93126619530311, 16.406536161265315, 0.0 ], [ -95.931849648541856, 16.407004915130436, 0.0 ], [ -95.932360419364812, 16.407628471953039, 0.0 ], [ -95.932652650224966, 16.408255326250409, 0.0 ], [ -95.932732539314372, 16.408892048712907, 0.0 ], [ -95.932947608014658, 16.409073874014048, 0.0 ], [ -95.933329196199495, 16.408978257726233, 0.0 ], [ -95.933744344816475, 16.409184475942727, 0.0 ], [ -95.934798872839195, 16.408691626755193, 0.0 ], [ -95.935239841635706, 16.408649206540733, 0.0 ], [ -95.935756995041871, 16.408887847998137, 0.0 ], [ -95.936140127750235, 16.40924342113761, 0.0 ], [ -95.936444743091386, 16.409526123993452, 0.0 ], [ -95.936896110660911, 16.410119144259987, 0.0 ], [ -95.937793182004611, 16.410873759802065, 0.0 ], [ -95.938617089705275, 16.411398699679278, 0.0 ], [ -95.939304171312898, 16.411895447389675, 0.0 ], [ -95.939671798020697, 16.412590241619192, 0.0 ], [ -95.939810987744025, 16.413333536108137, 0.0 ], [ -95.940020269059616, 16.413501184106551, 0.0 ], [ -95.940263776341865, 16.413430412950984, 0.0 ], [ -95.940651530341583, 16.413280355544696, 0.0 ], [ -95.941262140845851, 16.413452401483877, 0.0 ], [ -95.941615785048569, 16.413669744772385, 0.0 ], [ -95.942151260800898, 16.41412875348006, 0.0 ], [ -95.942037776854264, 16.414398213234328, 0.0 ], [ -95.942028741041653, 16.414658723013449, 0.0 ], [ -95.942090994843653, 16.415071209445276, 0.0 ], [ -95.941975888707162, 16.415609169569546, 0.0 ], [ -95.94224578878719, 16.415976422297895, 0.0 ], [ -95.942527706196444, 16.416189441071857, 0.0 ], [ -95.943344270421633, 16.416510475553824, 0.0 ], [ -95.943572680404017, 16.417061006751844, 0.0 ], [ -95.94374858817568, 16.417793073818238, 0.0 ], [ -95.944041176278304, 16.418420237704524, 0.0 ], [ -95.944489995366965, 16.418983138425222, 0.0 ], [ -95.944988165523455, 16.419305350505667, 0.0 ], [ -95.945353886541668, 16.41976280550622, 0.0 ], [ -95.945838711436295, 16.420008939012874, 0.0 ], [ -95.946393158727957, 16.420550825730345, 0.0 ], [ -95.947068634967053, 16.421033921378864, 0.0 ], [ -95.947717139729107, 16.421305329710076, 0.0 ], [ -95.949262420545523, 16.421160104302384, 0.0 ], [ -95.949899872068642, 16.42124923009251, 0.0 ], [ -95.950500201076508, 16.421401291618661, 0.0 ], [ -95.951087789896903, 16.421453414016622, 0.0 ], [ -95.951628423888891, 16.421527874326735, 0.0 ], [ -95.951946751994754, 16.42172644483491, 0.0 ], [ -95.952218834265864, 16.421980129412283, 0.0 ], [ -95.952479255061363, 16.421918973028337, 0.0 ], [ -95.952770643244492, 16.422027450588622, 0.0 ], [ -95.953057179523924, 16.421960756317265, 0.0 ], [ -95.95322128081952, 16.422315717964608, 0.0 ], [ -95.953502564612648, 16.422351710029233, 0.0 ], [ -95.953736802570475, 16.422825359569782, 0.0 ], [ -95.95526420928482, 16.424462742033164, 0.0 ], [ -95.956254937447767, 16.42485865078557, 0.0 ], [ -95.956903257793343, 16.424724086010883, 0.0 ], [ -95.957297654063353, 16.424712436331326, 0.0 ], [ -95.957726169391151, 16.424501249536004, 0.0 ], [ -95.958025027108107, 16.424459324861214, 0.0 ], [ -95.958370659218602, 16.424658227538554, 0.0 ], [ -95.958404778628193, 16.425063706367634, 0.0 ], [ -95.958257222959489, 16.425544974248165, 0.0 ], [ -95.958060052164498, 16.425762974537079, 0.0 ], [ -95.958016361838574, 16.425811281009658, 0.0 ], [ -95.957944239195243, 16.425849444264177, 0.0 ], [ -95.957711675974849, 16.426263077936689, 0.0 ], [ -95.957813027762981, 16.426680163999702, 0.0 ], [ -95.958158500813369, 16.427005584286011, 0.0 ], [ -95.958779701310448, 16.427416991109308, 0.0 ], [ -95.959396242078142, 16.4276920257665, 0.0 ], [ -95.960024982853454, 16.428161312346329, 0.0 ], [ -95.959983806026102, 16.428253233142595, 0.0 ], [ -95.959703914276758, 16.428617272076746, 0.0 ], [ -95.95965874181833, 16.428608947451416, 0.0 ], [ -95.959227485913857, 16.429062098476649, 0.0 ], [ -95.959116792294282, 16.429278933058921, 0.0 ], [ -95.958476712018793, 16.429352393742047, 0.0 ], [ -95.958418259278972, 16.429488386314912, 0.0 ], [ -95.958455765731401, 16.42973462427836, 0.0 ], [ -95.958244580802614, 16.429901105361733, 0.0 ], [ -95.958107846383541, 16.430316138593483, 0.0 ], [ -95.957932179569468, 16.430792373667824, 0.0 ], [ -95.958279307022551, 16.431022907831736, 0.0 ], [ -95.958289152006387, 16.431257598552175, 0.0 ], [ -95.958129753181453, 16.431243102315552, 0.0 ], [ -95.957724546635006, 16.431106271940877, 0.0 ], [ -95.957452801894874, 16.431147578710668, 0.0 ], [ -95.95708776800177, 16.431281967675357, 0.0 ], [ -95.957106247253662, 16.431388721835827, 0.0 ], [ -95.957130803599995, 16.431530583290701, 0.0 ], [ -95.957148072003008, 16.431630341017446, 0.0 ], [ -95.957301090291153, 16.431777881888486, 0.0 ], [ -95.957112583886456, 16.432222674307759, 0.0 ], [ -95.956841552254744, 16.432374542112303, 0.0 ], [ -95.956573552504025, 16.432637403573132, 0.0 ], [ -95.956370298193548, 16.433007108048297, 0.0 ], [ -95.956135347437964, 16.433449324033951, 0.0 ], [ -95.955895806776553, 16.434017167714309, 0.0 ], [ -95.955610425744055, 16.434523146436526, 0.0 ], [ -95.955218912819277, 16.434373152028847, 0.0 ], [ -95.954952387501407, 16.434293781448044, 0.0 ], [ -95.954683732986027, 16.434042267741685, 0.0 ], [ -95.954461065168459, 16.433838980708646, 0.0 ], [ -95.954179161198013, 16.433699470840054, 0.0 ], [ -95.953973055203065, 16.433584448100639, 0.0 ], [ -95.953850861789604, 16.433313469752211, 0.0 ], [ -95.953744891232603, 16.433252833427389, 0.0 ], [ -95.953660971048109, 16.433204813598497, 0.0 ], [ -95.953544165619832, 16.43313797725974, 0.0 ], [ -95.953134433352488, 16.433006376887601, 0.0 ], [ -95.9529815930713, 16.432791797625246, 0.0 ], [ -95.952749368147693, 16.432718537026336, 0.0 ], [ -95.95250083206669, 16.432740198754388, 0.0 ], [ -95.952214237933504, 16.432538257691, 0.0 ], [ -95.9519506802271, 16.432681805459019, 0.0 ], [ -95.951512541691798, 16.432524275735464, 0.0 ], [ -95.951243591000136, 16.432326468800515, 0.0 ], [ -95.950819951380055, 16.43216094685258, 0.0 ], [ -95.950577910865618, 16.432095857455916, 0.0 ], [ -95.950577882897747, 16.43209586417046, 0.0 ], [ -95.949519129918215, 16.432388470672425, 0.0 ], [ -95.949519101014829, 16.432388477399929, 0.0 ], [ -95.948812834110925, 16.433241995676887, 0.0 ], [ -95.948814759437298, 16.433530729274356, 0.0 ], [ -95.948583416262011, 16.433698553229092, 0.0 ], [ -95.947981209473355, 16.433530795206195, 0.0 ], [ -95.947280637896327, 16.432886987386379, 0.0 ], [ -95.946931192731483, 16.432739852150522, 0.0 ], [ -95.946931163759757, 16.432739854363653, 0.0 ], [ -95.9461239485356, 16.432701690539428, 0.0 ], [ -95.946123919563874, 16.432701692752524, 0.0 ], [ -95.945637011066893, 16.433069445265023, 0.0 ], [ -95.945514355943104, 16.432735406123935, 0.0 ], [ -95.945514327893193, 16.43273540742096, 0.0 ], [ -95.945031471988031, 16.432699237302124, 0.0 ], [ -95.944798484233118, 16.432865174286569, 0.0 ], [ -95.944359658132527, 16.432445312843395, 0.0 ], [ -95.944359629201571, 16.432445317764657, 0.0 ], [ -95.944076166627326, 16.432489180656162, 0.0 ], [ -95.943960291868905, 16.432314688252013, 0.0 ], [ -95.945302772800048, 16.431677648470966, 0.0 ], [ -95.945302799805503, 16.431677639964619, 0.0 ], [ -95.945324512518681, 16.431222803523131, 0.0 ], [ -95.945324484441784, 16.431222803014553, 0.0 ], [ -95.94457887580532, 16.431049847278413, 0.0 ], [ -95.945490255236109, 16.430247065181092, 0.0 ], [ -95.945477114033977, 16.429452729030565, 0.0 ], [ -95.942602846282767, 16.427643745694592, 0.0 ], [ -95.938823652304649, 16.42520394142484, 0.0 ], [ -95.936285342594999, 16.424352560861486, 0.0 ], [ -95.935427384984791, 16.423823309077257, 0.0 ], [ -95.934106317886787, 16.423743634385065, 0.0 ], [ -95.932288861149686, 16.426260706130719, 0.0 ], [ -95.934223570216517, 16.427912873731909, 0.0 ], [ -95.937507035726014, 16.42940318520272, 0.0 ], [ -95.937680546558283, 16.429518054432556, 0.0 ], [ -95.938261381944045, 16.429791111281485, 0.0 ], [ -95.938304769461794, 16.429809211713835, 0.0 ], [ -95.939008817290841, 16.430102917003214, 0.0 ], [ -95.939039186942807, 16.430450740223652, 0.0 ], [ -95.939666237518381, 16.430888872973156, 0.0 ], [ -95.939662003513106, 16.431075481023495, 0.0 ], [ -95.939256715094018, 16.431366736636569, 0.0 ], [ -95.93925669192511, 16.431366751409335, 0.0 ], [ -95.938678260391455, 16.431672556680695, 0.0 ], [ -95.93840102679107, 16.431955717893782, 0.0 ], [ -95.938127555258561, 16.432059613209272, 0.0 ], [ -95.938127527303607, 16.432059620824933, 0.0 ], [ -95.938037626857181, 16.432187852211136, 0.0 ], [ -95.938223110992737, 16.4328128423642, 0.0 ], [ -95.937954437599799, 16.433422342120355, 0.0 ], [ -95.937826271865333, 16.433500568806103, 0.0 ], [ -95.937882110809369, 16.433335178561315, 0.0 ], [ -95.937985996508615, 16.433048069762165, 0.0 ], [ -95.937958663722398, 16.432797024218122, 0.0 ], [ -95.937233660828056, 16.431603642177713, 0.0 ], [ -95.937233632750832, 16.431603641668023, 0.0 ], [ -95.936471557077226, 16.43140605699498, 0.0 ], [ -95.936497292720489, 16.431254189308074, 0.0 ], [ -95.936686690055467, 16.431110789816081, 0.0 ], [ -95.937111359012604, 16.431105752262212, 0.0 ], [ -95.937111387062473, 16.431105750966367, 0.0 ], [ -95.937187691055726, 16.430986856889355, 0.0 ], [ -95.936739448429066, 16.43067245319363, 0.0 ], [ -95.936517760301882, 16.430404908499469, 0.0 ], [ -95.936517732238443, 16.430404908892474, 0.0 ], [ -95.934465076166049, 16.430139460975681, 0.0 ], [ -95.934465048143323, 16.430139464076802, 0.0 ], [ -95.932789148139747, 16.43066487756316, 0.0 ], [ -95.932789119235608, 16.430664884288475, 0.0 ], [ -95.932145578611525, 16.431279379351633, 0.0 ], [ -95.931634583228515, 16.431140599459653, 0.0 ], [ -95.931444776194795, 16.431537651843961, 0.0 ], [ -95.930946660079641, 16.43203629638041, 0.0 ], [ -95.930672764266021, 16.431773087226105, 0.0 ], [ -95.930672735348026, 16.431773093048236, 0.0 ], [ -95.929512932859922, 16.432041239207365, 0.0 ], [ -95.929512904823198, 16.432041241405109, 0.0 ], [ -95.928779661552696, 16.431947820145265, 0.0 ], [ -95.928398211971896, 16.431010709769588, 0.0 ], [ -95.927908553333026, 16.430758207359371, 0.0 ], [ -95.927908526340119, 16.430758216766339, 0.0 ], [ -95.927211073124866, 16.43113461262443, 0.0 ], [ -95.927211046145402, 16.431134622934128, 0.0 ], [ -95.925696923222105, 16.431454057090647, 0.0 ], [ -95.925696894303968, 16.431454062912159, 0.0 ], [ -95.924984842333672, 16.431987560078323, 0.0 ], [ -95.924452970900077, 16.431992437638058, 0.0 ], [ -95.924452943866228, 16.431992444336185, 0.0 ], [ -95.923828825274214, 16.432326625928667, 0.0 ], [ -95.923828802090256, 16.432326639797093, 0.0 ], [ -95.922503073133299, 16.433378880730569, 0.0 ], [ -95.921854097324641, 16.434420874928161, 0.0 ], [ -95.920997055663193, 16.434996257318844, 0.0 ], [ -95.920997029618178, 16.43499626761475, 0.0 ], [ -95.920379667870407, 16.435118660285138, 0.0 ], [ -95.920379638015987, 16.435118666119109, 0.0 ], [ -95.919243199541768, 16.436046227897901, 0.0 ], [ -95.917757989510989, 16.436169193087309, 0.0 ], [ -95.915766200697945, 16.434898480471933, 0.0 ], [ -95.915295460348077, 16.434092093797588, 0.0 ], [ -95.914735967003196, 16.433724648940537, 0.0 ], [ -95.914735938925233, 16.433724648427852, 0.0 ], [ -95.913285672606577, 16.433410110642679, 0.0 ], [ -95.913285645518073, 16.433410113728119, 0.0 ], [ -95.911837373143683, 16.434058240810437, 0.0 ], [ -95.911837349023003, 16.434058254690726, 0.0 ], [ -95.910515982656563, 16.434969905527083, 0.0 ], [ -95.910515956610823, 16.434969915821821, 0.0 ], [ -95.910404233959454, 16.435717716623927, 0.0 ], [ -95.910510024149545, 16.436073220997688, 0.0 ], [ -95.910279697096826, 16.436939310402003, 0.0 ], [ -95.90999309905736, 16.436901174035619, 0.0 ], [ -95.909796122884956, 16.43710243871924, 0.0 ], [ -95.909480862773549, 16.43728773794864, 0.0 ], [ -95.909480836646722, 16.437287742826371, 0.0 ], [ -95.908838764141308, 16.437197233663849, 0.0 ], [ -95.908838735113846, 16.437197232260552, 0.0 ], [ -95.908706024073453, 16.437835449536777, 0.0 ], [ -95.908348186964005, 16.438457520090889, 0.0 ], [ -95.9080481714293, 16.438520518778859, 0.0 ], [ -95.907691599547107, 16.438230802697426, 0.0 ] ] ], [ [ [ -95.929545307000069, 16.405821060514324, 0.0 ], [ -95.92945035614558, 16.405815372443303, 0.0 ], [ -95.929337544761879, 16.405812288535195, 0.0 ], [ -95.929180958765158, 16.405807132379199, 0.0 ], [ -95.929069564838144, 16.40580836930917, 0.0 ], [ -95.928929894650338, 16.405813493427864, 0.0 ], [ -95.928837846237883, 16.405812146886966, 0.0 ], [ -95.928633726159035, 16.405899566877917, 0.0 ], [ -95.928601154237981, 16.405902787978089, 0.0 ], [ -95.928463245981192, 16.405928441489721, 0.0 ], [ -95.928325465489891, 16.405954071461711, 0.0 ], [ -95.928188644001693, 16.405979522724301, 0.0 ], [ -95.928056705564913, 16.405993509847303, 0.0 ], [ -95.927837127831964, 16.405919582046263, 0.0 ], [ -95.927738975725973, 16.405865588957063, 0.0 ], [ -95.92755159534866, 16.405819846293006, 0.0 ], [ -95.927472564031589, 16.405809134068353, 0.0 ], [ -95.927403430011864, 16.405798566473887, 0.0 ], [ -95.927265837819419, 16.405734440380524, 0.0 ], [ -95.927152659073656, 16.405691179218721, 0.0 ], [ -95.926887291180407, 16.405568840785847, 0.0 ], [ -95.926853271108456, 16.405472263174222, 0.0 ], [ -95.926785391400827, 16.405438345920413, 0.0 ], [ -95.926719240718157, 16.405363976822454, 0.0 ], [ -95.926715138559587, 16.40536511218977, 0.0 ], [ -95.926697495515384, 16.405353864590623, 0.0 ], [ -95.926687304070299, 16.405340934673131, 0.0 ], [ -95.926682962629997, 16.405333704285692, 0.0 ], [ -95.926680893667211, 16.405330293559789, 0.0 ], [ -95.926679957753507, 16.40532751630559, 0.0 ], [ -95.926682072527854, 16.405327360409782, 0.0 ], [ -95.926684309413062, 16.405323485123194, 0.0 ], [ -95.926670333256496, 16.405302642509653, 0.0 ], [ -95.9266339940487, 16.405229008310524, 0.0 ], [ -95.926579740038974, 16.405106317664849, 0.0 ], [ -95.926476940301143, 16.405033144609586, 0.0 ], [ -95.926518230494295, 16.404847994973078, 0.0 ], [ -95.926490196500851, 16.404693452735152, 0.0 ], [ -95.926481428619766, 16.404663799093957, 0.0 ], [ -95.926471023753365, 16.404641913376157, 0.0 ], [ -95.926363517115078, 16.40443453733975, 0.0 ], [ -95.926351079862741, 16.40441537361091, 0.0 ], [ -95.926336259240031, 16.404397859480493, 0.0 ], [ -95.926319287626882, 16.404382269836457, 0.0 ], [ -95.926284101857732, 16.404233234412921, 0.0 ], [ -95.926176596469418, 16.404146199576012, 0.0 ], [ -95.925902284063241, 16.404066349721418, 0.0 ], [ -95.925882574582459, 16.404052597876873, 0.0 ], [ -95.925861182397924, 16.404041431313356, 0.0 ], [ -95.92583847051398, 16.404033039119984, 0.0 ], [ -95.925704446318264, 16.403992942587553, 0.0 ], [ -95.925570423086057, 16.40395284504466, 0.0 ], [ -95.925436398973588, 16.403912748322877, 0.0 ], [ -95.925302374889256, 16.403872650603603, 0.0 ], [ -95.925168350860048, 16.403832553692531, 0.0 ], [ -95.925018631528872, 16.40378776021198, 0.0 ], [ -95.924909793083046, 16.403732409038177, 0.0 ], [ -95.924785654803017, 16.403669275626541, 0.0 ], [ -95.924692434030973, 16.403621867317376, 0.0 ], [ -95.930842884562196, 16.399126927692791, 0.0 ], [ -95.936955481069219, 16.402516060827406, 0.0 ], [ -95.931349351062067, 16.406527853083574, 0.0 ], [ -95.931307577971197, 16.406384339081846, 0.0 ], [ -95.931145201728867, 16.40632224227798, 0.0 ], [ -95.930992836283039, 16.406253123784698, 0.0 ], [ -95.930845906328869, 16.406153029323651, 0.0 ], [ -95.930703063675125, 16.406107940310097, 0.0 ], [ -95.930545299340253, 16.406067410128493, 0.0 ], [ -95.93037748805807, 16.40603628939251, 0.0 ], [ -95.930155688580385, 16.405975711809134, 0.0 ], [ -95.930007672900174, 16.405944880702364, 0.0 ], [ -95.929864830501529, 16.405899791061216, 0.0 ], [ -95.929717114379287, 16.405849851535766, 0.0 ], [ -95.929600081823978, 16.405831895444479, 0.0 ], [ -95.929545307000069, 16.405821060514324, 0.0 ] ] ] ] } },
{ "type": "Feature", "properties": { "NOMBRE": "Hierve el agua", "CAT_MANEJO": "Parque estatal", "ADVC": null, "FECHA_EXP": null, "VIGENCIA": null, "NOM_059": null, "TIPO_PROP": null, "HECTARES": 4129.206 }, "geometry": { "type": "MultiPolygon", "coordinates": [ [ [ [ -96.228191418533669, 16.852346644639127, 0.0 ], [ -96.23715785899536, 16.84499876795288, 0.0 ], [ -96.284697961638855, 16.861356696756555, 0.0 ], [ -96.293336109833831, 16.869556598097372, 0.0 ], [ -96.29041011075654, 16.886778768060015, 0.0 ], [ -96.282543098672335, 16.912020800983932, 0.0 ], [ -96.259473821383651, 16.913031787267066, 0.0 ], [ -96.249594226144197, 16.912383025841933, 0.0 ], [ -96.235151583505143, 16.897852558206012, 0.0 ], [ -96.226344163062834, 16.893203306665701, 0.0 ], [ -96.224927439707855, 16.880108245317004, 0.0 ], [ -96.224220152773896, 16.86329915551164, 0.0 ], [ -96.228191418533669, 16.852346644639127, 0.0 ] ] ] ] } },
{ "type": "Feature", "properties": { "NOMBRE": "El Campanario - Laacanloo Cruz", "CAT_MANEJO": "ADVC", "ADVC": "El Campanario - Laacanloo Cruz", "FECHA_EXP": "25/11/2011", "VIGENCIA": "15 años", "NOM_059": "Flora: Coryphantha retusa, Mammillaria karwinskiana, Bouvardia xylosteoides. Fauna: Leptonycteris curasoae, Accipiter striatus, Buteo albicaudatus, Buteo albonotatus, Parabuteo unicinctus, Oporornis tolmiei, entre otras, ver listado.", "TIPO_PROP": "Comunidades", "HECTARES": 0.001 }, "geometry": { "type": "MultiPolygon", "coordinates": [ [ [ [ -96.35215152257453, 16.992169264650048, 0.0 ], [ -96.361367627863586, 16.994172231563471, 0.0 ], [ -96.354957428042738, 16.992779188009276, 0.0 ], [ -96.35215152257453, 16.992169264650048, 0.0 ] ] ], [ [ [ -96.37921704223254, 16.979986371923722, 0.0 ], [ -96.378235021229074, 16.981111726874914, 0.0 ], [ -96.378273669594051, 16.981066375413018, 0.0 ], [ -96.379214323581991, 16.979988932743222, 0.0 ], [ -96.37921704223254, 16.979986371923722, 0.0 ] ] ] ] } },
{ "type": "Feature", "properties": { "NOMBRE": "Danii Idoo (Cerro Iglesia)", "CAT_MANEJO": "ADVC", "ADVC": "Danii Idoo (Cerro Iglesia)", "FECHA_EXP": "24/10/2013", "VIGENCIA": "15 años", "NOM_059": "Flora: Rhynchostele cervantesii, Coryphantha retusa, Mammillaria karwinskiana. Fauna: Panthera onca, Bubo virginianus, Buteo albonotatus, Dendrortyx macroura, Lamprolaima rhami, Kinosternon integrum, Crotalus molossus, C. ravus.", "TIPO_PROP": "Comunidades", "HECTARES": 0.001 }, "geometry": { "type": "MultiPolygon", "coordinates": [ [ [ [ -96.35215152257453, 16.992169264650048, 0.0 ], [ -96.361367627863586, 16.994172231563471, 0.0 ], [ -96.354957428042738, 16.992779188009276, 0.0 ], [ -96.35215152257453, 16.992169264650048, 0.0 ] ] ], [ [ [ -96.37921704223254, 16.979986371923722, 0.0 ], [ -96.378235021229074, 16.981111726874914, 0.0 ], [ -96.378273669594051, 16.981066375413018, 0.0 ], [ -96.379214323581991, 16.979988932743222, 0.0 ], [ -96.37921704223254, 16.979986371923722, 0.0 ] ] ] ] } }
]
}
